     2.100          NAVIGATION                              RINEX VERSION / TYPE
fic2rin                                 08/23/2012 00:36:43 PGM / RUN BY / DATE
                                                            END OF HEADER
12 12  8 22  4  0  0.0  .867322087288D-04  .204636307899D-11  .000000000000D+00
     .460000000000D+02  .299687500000D+02  .396337937637D-08 -.178057296865D+01
     .160373747349D-05  .400313152932D-02  .863708555698D-05  .515373397827D+04
     .273600000000D+06 -.149011611938D-06  .148006847063D+01 -.186264514923D-08
     .980577170827D+00  .224500000000D+03  .136687142162D+00 -.778103839720D-08
     .522164607395D-09  .100000000000D+01  .170200000000D+04  .000000000000D+00
     .240000000000D+01  .000000000000D+00 -.121071934700D-07  .460000000000D+02
     .266406000000D+06  .400000000000D+01
13 12  8 22  4  0  0.0  .186368823051D-03 -.250111042988D-11  .000000000000D+00
     .630000000000D+02 -.834375000000D+01  .432768026525D-08  .833093207550D+00
    -.705942511559D-06  .485652417410D-02  .377744436264D-05  .515362344742D+04
     .273600000000D+06 -.149011611938D-07 -.545820984961D+00 -.409781932831D-07
     .984786047583D+00  .318375000000D+03  .206868471019D+01 -.820712757409D-08
    -.291440711104D-09  .100000000000D+01  .170200000000D+04  .000000000000D+00
     .240000000000D+01  .000000000000D+00 -.111758708954D-07  .630000000000D+02
     .266406000000D+06  .400000000000D+01
14 12  8 22  4  0  0.0  .210678204894D-03  .102318153949D-11  .000000000000D+00
     .870000000000D+02 -.138437500000D+02  .457090468224D-08  .109256879143D+01
    -.692903995514D-06  .672413199209D-02  .378675758839D-05  .515362601852D+04
     .273600000000D+06 -.141561031342D-06 -.573114907965D+00  .484287738800D-07
     .977561894782D+00  .318812500000D+03 -.205952915735D+01 -.843499420851D-08
    -.333585323739D-09  .100000000000D+01  .170200000000D+04  .000000000000D+00
     .240000000000D+01  .000000000000D+00 -.931322574615D-08  .870000000000D+02
     .266406000000D+06  .400000000000D+01
15 12  8 22  4  0  0.0 -.940891914070D-04 -.568434188608D-12  .000000000000D+00
     .420000000000D+02 -.868750000000D+01  .533057918288D-08  .655314175551D+00
    -.411644577980D-06  .454457255546D-02  .251643359661D-05  .515361155891D+04
     .273600000000D+06  .651925802231D-07 -.663758148945D+00 -.372529029846D-08
     .944264012615D+00  .316812500000D+03  .363934855805D-01 -.872857786602D-08
    -.312155859687D-09  .100000000000D+01  .170200000000D+04  .000000000000D+00
     .240000000000D+01  .000000000000D+00 -.102445483208D-07  .420000000000D+02
     .266406000000D+06  .400000000000D+01
16 12  8 22  4  0  0.0 -.244288705289D-03 -.909494701773D-12  .000000000000D+00
     .930000000000D+02  .165000000000D+02  .396302221864D-08  .227664085290D+01
     .914558768272D-06  .653423776384D-02  .914745032787D-05  .515373179817D+04
     .273600000000D+06 -.279396772385D-07  .149828352696D+01  .838190317154D-07
     .981370186533D+00  .215656250000D+03  .279219244774D-01 -.780032491484D-08
     .462876423518D-09  .100000000000D+01  .170200000000D+04  .000000000000D+00
     .240000000000D+01  .000000000000D+00 -.977888703346D-08  .930000000000D+02
     .266406000000D+06  .400000000000D+01
17 12  8 22  4  0  0.0  .103045254946D-03 -.318323145621D-11  .000000000000D+00
     .610000000000D+02 -.348437500000D+02  .481198615282D-08  .135970417487D+01
    -.186264514923D-05  .747277343180D-02  .495277345181D-05  .515372277069D+04
     .273600000000D+06 -.134110450745D-06  .253830518020D+01  .100582838058D-06
     .963605381278D+00  .282625000000D+03 -.229694983361D+01 -.840213569696D-08
    -.342871424828D-10  .100000000000D+01  .170200000000D+04  .000000000000D+00
     .240000000000D+01  .000000000000D+00 -.107102096081D-07  .610000000000D+02
     .266406000000D+06  .400000000000D+01
18 12  8 22  4  0  0.0  .211243052036D-03  .181898940355D-11  .000000000000D+00
     .430000000000D+02  .114968750000D+03  .521521723473D-08  .281854307970D+01
     .574439764023D-05  .136323026381D-01  .797398388386D-05  .515372778893D+04
     .273600000000D+06  .484287738800D-07 -.168066635923D+01 -.176951289177D-06
     .928757181916D+00  .206750000000D+03 -.214959521717D+01 -.825248660633D-08
     .240367155114D-09  .100000000000D+01  .170200000000D+04  .000000000000D+00
     .240000000000D+01  .000000000000D+00 -.107102096081D-07  .430000000000D+02
     .266406000000D+06  .400000000000D+01
20 12  8 22  4  0  0.0  .666975975037D-04  .682121026330D-12  .000000000000D+00
     .270000000000D+02  .985937500000D+02  .529343477852D-08 -.303821974170D+01
     .511668622494D-05  .495458859950D-02  .909902155399D-05  .515365327644D+04
     .273600000000D+06  .121071934700D-06 -.173435209534D+01 -.894069671631D-07
     .929315947865D+00  .184625000000D+03  .127711467243D+01 -.840427864337D-08
     .275725770799D-09  .100000000000D+01  .170200000000D+04  .000000000000D+00
     .240000000000D+01  .000000000000D+00 -.791624188423D-08  .270000000000D+02
     .266406000000D+06  .400000000000D+01
21 12  8 22  4  0  0.0 -.244734808803D-03 -.250111042988D-11  .000000000000D+00
     .370000000000D+02 -.185000000000D+02  .502592363561D-08 -.231519546054D+01
    -.132806599140D-05  .193336179946D-01  .111125409603D-04  .515358269882D+04
     .273600000000D+06  .346451997757D-06 -.273077182779D+01 -.782310962677D-07
     .931763585362D+00  .143656250000D+03 -.222524329182D+01 -.799961893052D-08
    -.425017703693D-10  .100000000000D+01  .170200000000D+04  .000000000000D+00
     .240000000000D+01  .000000000000D+00 -.111758708954D-07  .370000000000D+02
     .266406000000D+06  .400000000000D+01
22 12  8 22  4  0  0.0  .146882608533D-03  .682121026330D-12  .000000000000D+00
     .630000000000D+02  .110125000000D+03  .543594071446D-08  .204114687193D+01
     .563636422157D-05  .631788652390D-02  .834465026855D-05  .515367927551D+04
     .273600000000D+06  .000000000000D+00 -.167746890600D+01 -.162050127983D-06
     .926483734075D+00  .201000000000D+03 -.200537629394D+01 -.849356807692D-08
     .303941231801D-09  .100000000000D+01  .170200000000D+04  .000000000000D+00
     .340000000000D+01  .000000000000D+00 -.172294676304D-07  .630000000000D+02
     .266406000000D+06  .400000000000D+01
23 12  8 22  4  0  0.0  .172577332705D-03 -.397903932026D-11  .000000000000D+00
     .980000000000D+02  .106250000000D+01  .500627996023D-08  .130136129172D+00
    -.108033418655D-06  .820915296208D-02  .290572643280D-05  .515359103584D+04
     .273600000000D+06  .223517417908D-07 -.626762497025D+00  .782310962677D-07
     .959085934327D+00  .318562500000D+03 -.294988294322D+01 -.865571768824D-08
    -.275011455331D-09  .100000000000D+01  .170200000000D+04  .000000000000D+00
     .240000000000D+01  .000000000000D+00 -.200234353542D-07  .980000000000D+02
     .266406000000D+06  .400000000000D+01
25 12  8 22  4  0  0.0  .404105521739D-04  .113686837722D-11  .000000000000D+00
     .230000000000D+02  .327812500000D+02  .415160150230D-08 -.299121089829D+01
     .173039734364D-05  .181504304055D-02  .900775194168D-05  .515367200279D+04
     .273600000000D+06 -.186264514923D-08  .144498360185D+01  .113621354103D-06
     .969437289571D+00  .209968750000D+03  .783034716836D+00 -.791497254752D-08
     .541093967307D-09  .100000000000D+01  .170200000000D+04  .000000000000D+00
     .240000000000D+01  .000000000000D+00  .512227416039D-08  .230000000000D+02
     .266406000000D+06  .400000000000D+01
26 12  8 22  4  0  0.0 -.306836795062D-03  .126192389871D-10  .000000000000D+00
     .330000000000D+02 -.131250000000D+02  .449054419205D-08 -.495049137355D-02
    -.530853867531D-06  .207782117650D-01  .405684113503D-05  .515366260147D+04
     .273600000000D+06 -.162050127983D-06 -.552181013996D+00  .167638063431D-06
     .982296285360D+00  .312500000000D+03  .120486990991D+01 -.861464454881D-08
    -.326442169055D-09  .100000000000D+01  .170200000000D+04  .000000000000D+00
     .240000000000D+01  .000000000000D+00 -.605359673500D-08  .330000000000D+02
     .266406000000D+06  .400000000000D+01
27 12  8 22  4  0  0.0  .422814860940D-03  .420641299570D-11  .000000000000D+00
     .750000000000D+02 -.649375000000D+02  .393266381123D-08  .823541445293D+00
    -.392645597458D-05  .217285350664D-01  .961869955063D-05  .515369820404D+04
     .273600000000D+06  .707805156708D-07  .371067678630D+00 -.435858964920D-06
     .982278392409D+00  .210812500000D+03 -.104488623036D+01 -.804247785863D-08
    -.350014579512D-09  .100000000000D+01  .170200000000D+04  .000000000000D+00
     .240000000000D+01  .000000000000D+00 -.419095158577D-08  .750000000000D+02
     .266406000000D+06  .400000000000D+01
29 12  8 22  4  0  0.0  .346934422851D-03  .432009983342D-11  .000000000000D+00
     .760000000000D+02 -.410312500000D+02  .473448292450D-08 -.212371105565D+01
    -.200979411602D-05  .193270493764D-02  .532530248165D-05  .515379500198D+04
     .273600000000D+06 -.745058059692D-08  .254692034134D+01  .447034835815D-07
     .964176707841D+00  .277312500000D+03 -.105395951161D+01 -.824605776712D-08
    -.310727228751D-10  .100000000000D+01  .170200000000D+04  .000000000000D+00
     .240000000000D+01  .000000000000D+00 -.977888703346D-08  .760000000000D+02
     .266406000000D+06  .400000000000D+01
30 12  8 22  4  0  0.0 -.378628261387D-03 -.252384779742D-10  .000000000000D+00
     .104000000000D+03  .140625000000D+02  .444625663301D-08  .122889287682D+01
     .569969415665D-06  .112078050151D-01  .985153019428D-05  .515370004463D+04
     .273600000000D+06 -.782310962677D-07  .135325970328D+01 -.176951289177D-06
     .960658762905D+00  .192000000000D+03  .159848519087D+01 -.817319758934D-08
     .449661587353D-09  .100000000000D+01  .170200000000D+04  .000000000000D+00
     .136500000000D+02  .000000000000D+00 -.419095158577D-08  .104000000000D+03
     .266406000000D+06  .400000000000D+01
